{"type": "FeatureCollection", "features": [ {"type": "Feature", "properties": {"norad_id": 66865, "name": "STARLINK-36117", "group": "last-30-days", "lat": -27.96192050820792, "lon": 90.15241267870996, "alt_km": 295.3615959767094, "timestamp": "2025-12-12T07:43:19.260122+00:00", "meta": {"OBJECT_NAME": "STARLINK-36117", "OBJECT_ID": "2025-281T", "EPOCH": "2025-12-10T16:00:01.999584", "MEAN_MOTION": 15.96583953, "ECCENTRICITY": 0.00015871, "INCLINATION": 43.0019, "RA_OF_ASC_NODE": 135.2145, "ARG_OF_PERICENTER": 270.3957, "MEAN_ANOMALY": 253.0482, "EPHEMERIS_TYPE": 0, "CLASSIFICATION_TYPE": "U", "NORAD_CAT_ID": 66865, "ELEMENT_SET_NO": 999, "REV_AT_EPOCH": 246, "BSTAR": -0.0028296854, "MEAN_MOTION_DOT": -0.01242568, "MEAN_MOTION_DDOT": 0.00047038241}, "tle": {"line1": "1 66865U 25281T   25344.66668981 -.01242568  47038-3 -28297-2 0  9992", "line2": "2 66865  43.0019 135.2145 0001587 270.3957 253.0482 15.96583953  2465"}}, "geometry": {"type": "Point", "coordinates": [90.15241267870996, -27.96192050820792]}}, {"type": "Feature", "properties": {"norad_id": 66866, "name": "STARLINK-36126", "group": "last-30-days", "lat": -26.65371630007822, "lon": 92.28355913192303, "alt_km": 295.0099928011905, "timestamp": "2025-12-12T07:43:19.260132+00:00", "meta": {"OBJECT_NAME": "STARLINK-36126", "OBJECT_ID": "2025-281U", "EPOCH": "2025-12-10T18:00:02.000160", "MEAN_MOTION": 15.96440327, "ECCENTRICITY": 0.0001689, "INCLINATION": 43.002, "RA_OF_ASC_NODE": 134.6885, "ARG_OF_PERICENTER": 273.0721, "MEAN_ANOMALY": 11.8299, "EPHEMERIS_TYPE": 0, "CLASSIFICATION_TYPE": "U", "NORAD_CAT_ID": 66866, "ELEMENT_SET_NO": 999, "REV_AT_EPOCH": 247, "BSTAR": -0.0028095, "MEAN_MOTION_DOT": -0.01224235, "MEAN_MOTION_DDOT": 0.0004571}, "tle": {"line1": "1 66866U 25281U   25344.75002315 -.01224235  45710-3 -28095-2 0  9998", "line2": "2 66866  43.0020 134.6885 0001689 273.0721  11.8299 15.96440327  2478"}}, "geometry": {"type": "Point", "coordinates": [92.28355913192303, -26.65371630007822]}}, {"type": "Feature", "properties": {"norad_id": 66867, "name": "STARLINK-36101", "group": "last-30-days", "lat": -24.87916956279481, "lon": 95.02193272317525, "alt_km": 294.6627830181287, "timestamp": "2025-12-12T07:43:19.260144+00:00", "meta": {"OBJECT_NAME": "STARLINK-36101", "OBJECT_ID": "2025-281V", "EPOCH": "2025-12-10T18:00:02.000160", "MEAN_MOTION": 15.96520047, "ECCENTRICITY": 0.0001686, "INCLINATION": 43.0022, "RA_OF_ASC_NODE": 134.6817, "ARG_OF_PERICENTER": 274.9191, "MEAN_ANOMALY": 12.5728, "EPHEMERIS_TYPE": 0, "CLASSIFICATION_TYPE": "U", "NORAD_CAT_ID": 66867, "ELEMENT_SET_NO": 999, "REV_AT_EPOCH": 247, "BSTAR": -0.0027961, "MEAN_MOTION_DOT": -0.01223728, "MEAN_MOTION_DDOT": 0.00045712}, "tle": {"line1": "1 66867U 25281V   25344.75002315 -.01223728  45712-3 -27961-2 0  9998", "line2": "2 66867  43.0022 134.6817 0001686 274.9191  12.5728 15.96520047  2477"}}, "geometry": {"type": "Point", "coordinates": [95.02193272317525, -24.87916956279481]}}, {"type": "Feature", "properties": {"norad_id": 66868, "name": "STARLINK-36108", "group": "last-30-days", "lat": -22.93211593257777, "lon": 97.85663861462365, "alt_km": 294.43113665345936, "timestamp": "2025-12-12T07:43:19.260156+00:00", "meta": {"OBJECT_NAME": "STARLINK-36108", "OBJECT_ID": "2025-281W", "EPOCH": "2025-12-10T18:00:02.000160", "MEAN_MOTION": 15.96614278, "ECCENTRICITY": 0.0001671, "INCLINATION": 43.002, "RA_OF_ASC_NODE": 134.6746, "ARG_OF_PERICENTER": 272.8842, "MEAN_ANOMALY": 17.3898, "EPHEMERIS_TYPE": 0, "CLASSIFICATION_TYPE": "U", "NORAD_CAT_ID": 66868, "ELEMENT_SET_NO": 999, "REV_AT_EPOCH": 247, "BSTAR": -0.0028019, "MEAN_MOTION_DOT": -0.01232542, "MEAN_MOTION_DDOT": 0.00046361}, "tle": {"line1": "1 66868U 25281W   25344.75002315 -.01232542  46361-3 -28019-2 0  9999", "line2": "2 66868  43.0020 134.6746 0001671 272.8842  17.3898 15.96614278  2472"}}, "geometry": {"type": "Point", "coordinates": [97.85663861462365, -22.93211593257777]}}, {"type": "Feature", "properties": {"norad_id": 66869, "name": "STARLINK-36092", "group": "last-30-days", "lat": -21.378954001355652, "lon": 100.01095345237933, "alt_km": 294.1039004855502, "timestamp": "2025-12-12T07:43:19.260166+00:00", "meta": {"OBJECT_NAME": "STARLINK-36092", "OBJECT_ID": "2025-281X", "EPOCH": "2025-12-10T18:00:02.000160", "MEAN_MOTION": 15.96687641, "ECCENTRICITY": 0.0001731, "INCLINATION": 43.0021, "RA_OF_ASC_NODE": 134.6691, "ARG_OF_PERICENTER": 274.3433, "MEAN_ANOMALY": 18.0804, "EPHEMERIS_TYPE": 0, "CLASSIFICATION_TYPE": "U", "NORAD_CAT_ID": 66869, "ELEMENT_SET_NO": 999, "REV_AT_EPOCH": 247, "BSTAR": -0.0027998, "MEAN_MOTION_DOT": -0.01236576, "MEAN_MOTION_DDOT": 0.00046674}, "tle": {"line1": "1 66869U 25281X   25344.75002315 -.01236576  46674-3 -27998-2 0  9993", "line2": "2 66869  43.0021 134.6691 0001731 274.3433  18.0804 15.96687641  2472"}}, "geometry": {"type": "Point", "coordinates": [100.01095345237933, -21.378954001355652]}}, {"type": "Feature", "properties": {"norad_id": 66870, "name": "STARLINK-36114", "group": "last-30-days", "lat": -19.30370875601799, "lon": 102.7644147287013, "alt_km": 293.8905744123531, "timestamp": "2025-12-12T07:43:19.260179+00:00", "meta": {"OBJECT_NAME": "STARLINK-36114", "OBJECT_ID": "2025-281Y", "EPOCH": "2025-12-10T18:00:02.000160", "MEAN_MOTION": 15.96782568, "ECCENTRICITY": 0.0001629, "INCLINATION": 43.002, "RA_OF_ASC_NODE": 134.662, "ARG_OF_PERICENTER": 272.0351, "MEAN_ANOMALY": 23.2092, "EPHEMERIS_TYPE": 0, "CLASSIFICATION_TYPE": "U", "NORAD_CAT_ID": 66870, "ELEMENT_SET_NO": 999, "REV_AT_EPOCH": 247, "BSTAR": -0.002797, "MEAN_MOTION_DOT": -0.01241749, "MEAN_MOTION_DDOT": 0.00047077}, "tle": {"line1": "1 66870U 25281Y   25344.75002315 -.01241749  47077-3 -27970-2 0  9991", "line2": "2 66870  43.0020 134.6620 0001629 272.0351  23.2092 15.96782568  2476"}}, "geometry": {"type": "Point", "coordinates": [102.7644147287013, -19.30370875601799]}}, {"type": "Feature", "properties": {"norad_id": 66871, "name": "STARLINK-36095", "group": "last-30-days", "lat": -17.136153823626536, "lon": 105.51185948030624, "alt_km": 293.4662164369147, "timestamp": "2025-12-12T07:43:19.260213+00:00", "meta": {"OBJECT_NAME": "STARLINK-36095", "OBJECT_ID": "2025-281Z", "EPOCH": "2025-12-10T18:00:02.000160", "MEAN_MOTION": 15.96880545, "ECCENTRICITY": 0.000163, "INCLINATION": 43.0018, "RA_OF_ASC_NODE": 134.6543, "ARG_OF_PERICENTER": 274.017, "MEAN_ANOMALY": 24.1112, "EPHEMERIS_TYPE": 0, "CLASSIFICATION_TYPE": "U", "NORAD_CAT_ID": 66871, "ELEMENT_SET_NO": 999, "REV_AT_EPOCH": 247, "BSTAR": -0.0027933, "MEAN_MOTION_DOT": -0.01246757, "MEAN_MOTION_DDOT": 0.00047473}, "tle": {"line1": "1 66871U 25281Z   25344.75002315 -.01246757  47473-3 -27933-2 0  9995", "line2": "2 66871  43.0018 134.6543 0001630 274.0170  24.1112 15.96880545  2478"}}, "geometry": {"type": "Point", "coordinates": [105.51185948030624, -17.136153823626536]}}, {"type": "Feature", "properties": {"norad_id": 66872, "name": "STARLINK-36082", "group": "last-30-days", "lat": -15.643626987102229, "lon": 107.34023018804444, "alt_km": 293.19580866188244, "timestamp": "2025-12-12T07:43:19.260227+00:00", "meta": {"OBJECT_NAME": "STARLINK-36082", "OBJECT_ID": "2025-281AA", "EPOCH": "2025-12-10T18:00:02.000160", "MEAN_MOTION": 15.9694067, "ECCENTRICITY": 0.0001725, "INCLINATION": 43.0018, "RA_OF_ASC_NODE": 134.6495, "ARG_OF_PERICENTER": 271.8713, "MEAN_ANOMALY": 28.1659, "EPHEMERIS_TYPE": 0, "CLASSIFICATION_TYPE": "U", "NORAD_CAT_ID": 66872, "ELEMENT_SET_NO": 999, "REV_AT_EPOCH": 247, "BSTAR": -0.0027683, "MEAN_MOTION_DOT": -0.01239806, "MEAN_MOTION_DDOT": 0.00047019}, "tle": {"line1": "1 66872U 25281AA  25344.75002315 -.01239806  47019-3 -27683-2 0  9991", "line2": "2 66872  43.0018 134.6495 0001725 271.8713  28.1659 15.96940670  2474"}}, "geometry": {"type": "Point", "coordinates": [107.34023018804444, -15.643626987102229]}}, {"type": "Feature", "properties": {"norad_id": 66873, "name": "STARLINK-36128", "group": "last-30-days", "lat": -10.012847234296656, "lon": 113.88421097900878, "alt_km": 292.21229684393256, "timestamp": "2025-12-12T07:43:19.260241+00:00", "meta": {"OBJECT_NAME": "STARLINK-36128", "OBJECT_ID": "2025-281AB", "EPOCH": "2025-12-10T18:00:02.000160", "MEAN_MOTION": 15.97195544, "ECCENTRICITY": 0.0001713, "INCLINATION": 43.0015, "RA_OF_ASC_NODE": 134.6311, "ARG_OF_PERICENTER": 272.8425, "MEAN_ANOMALY": 34.4024, "EPHEMERIS_TYPE": 0, "CLASSIFICATION_TYPE": "U", "NORAD_CAT_ID": 66873, "ELEMENT_SET_NO": 999, "REV_AT_EPOCH": 242, "BSTAR": -0.0027664, "MEAN_MOTION_DOT": -0.01256354, "MEAN_MOTION_DDOT": 0.000483}, "tle": {"line1": "1 66873U 25281AB  25344.75002315 -.01256354  48300-3 -27664-2 0  9992", "line2": "2 66873  43.0015 134.6311 0001713 272.8425  34.4024 15.97195544  2421"}}, "geometry": {"type": "Point", "coordinates": [113.88421097900878, -10.012847234296656]}}, {"type": "Feature", "properties": {"norad_id": 66874, "name": "STARLINK-36129", "group": "last-30-days", "lat": -13.50333922249743, "lon": 109.88613472165754, "alt_km": 292.7831654792253, "timestamp": "2025-12-12T07:43:19.260252+00:00", "meta": {"OBJECT_NAME": "STARLINK-36129", "OBJECT_ID": "2025-281AC", "EPOCH": "2025-12-10T18:00:02.000160", "MEAN_MOTION": 15.97038594, "ECCENTRICITY": 0.0001722, "INCLINATION": 43.0018, "RA_OF_ASC_NODE": 134.6426, "ARG_OF_PERICENTER": 273.407, "MEAN_ANOMALY": 29.3953, "EPHEMERIS_TYPE": 0, "CLASSIFICATION_TYPE": "U", "NORAD_CAT_ID": 66874, "ELEMENT_SET_NO": 999, "REV_AT_EPOCH": 247, "BSTAR": -0.0027677, "MEAN_MOTION_DOT": -0.01246183, "MEAN_MOTION_DDOT": 0.0004751}, "tle": {"line1": "1 66874U 25281AC  25344.75002315 -.01246183  47510-3 -27677-2 0  9998", "line2": "2 66874  43.0018 134.6426 0001722 273.4070  29.3953 15.97038594  2475"}}, "geometry": {"type": "Point", "coordinates": [109.88613472165754, -13.50333922249743]}}]}